[{"OBJECT_NAME":"STARLINK-32520","OBJECT_ID":"2024-213P","EPOCH":"2026-03-09T12:21:50.121216","MEAN_MOTION":15.30215702,"ECCENTRICITY":8.918e-5,"INCLINATION":53.158,"RA_OF_ASC_NODE":169.2538,"ARG_OF_PERICENTER":108.0438,"MEAN_ANOMALY":252.066,"EPHEMERIS_TYPE":0,"CLASSIFICATION_TYPE":"U","NORAD_CAT_ID":62021,"ELEMENT_SET_NO":999,"REV_AT_EPOCH":7312,"BSTAR":0.00085823847,"MEAN_MOTION_DOT":0.00025158,"MEAN_MOTION_DDOT":0},{"OBJECT_NAME":"SCS-01 H","OBJECT_ID":"2025-100H","EPOCH":"2026-03-09T23:19:05.376864","MEAN_MOTION":15.31767757,"ECCENTRICITY":0.00071581,"INCLINATION":97.3749,"RA_OF_ASC_NODE":145.8085,"ARG_OF_PERICENTER":277.8492,"MEAN_ANOMALY":82.1937,"EPHEMERIS_TYPE":0,"CLASSIFICATION_TYPE":"U","NORAD_CAT_ID":63989,"ELEMENT_SET_NO":999,"REV_AT_EPOCH":4566,"BSTAR":0.0011436254,"MEAN_MOTION_DOT":0.00035149,"MEAN_MOTION_DDOT":0}]
